{
  "norad_id": 45460,
  "name": "YAOGAN-30 07A",
  "history": [
    {
      "epoch": "2026-03-28T23:06:33.537888Z",
      "apogee_km": 562.0127341933885,
      "perigee_km": 557.6741375076335,
      "latitude_deg": -1.5089459135279342e-05,
      "longitude_deg": 166.695435526352,
      "height_km": 556.7513300774957,
      "semi_major_axis_km": 6937.980435850511,
      "eccentricity": 0.00031267,
      "inclination_deg": 34.9961,
      "raan_deg": 339.711,
      "arg_perigee_deg": 22.231,
      "mean_anomaly_deg": 337.8533,
      "mean_motion_rev_day": 15.02287853
    },
    {
      "epoch": "2026-03-29T03:53:39.333120Z",
      "apogee_km": 561.9700206880434,
      "perigee_km": 557.7045540961544,
      "latitude_deg": -4.305880944010436e-05,
      "longitude_deg": 93.51053843165253,
      "height_km": 556.8234609100573,
      "semi_major_axis_km": 6937.974287392099,
      "eccentricity": 0.0003074,
      "inclination_deg": 34.9961,
      "raan_deg": 338.4968,
      "arg_perigee_deg": 25.2084,
      "mean_anomaly_deg": 334.8773,
      "mean_motion_rev_day": 15.0228985
    }
  ]
}